[{"OBJECT_NAME":"STARLINK-3229","OBJECT_ID":"2021-115AD","EPOCH":"2026-03-09T12:13:42.408768","MEAN_MOTION":15.08832801,"ECCENTRICITY":0.0001278,"INCLINATION":53.2178,"RA_OF_ASC_NODE":149.8526,"ARG_OF_PERICENTER":93.5177,"MEAN_ANOMALY":266.5961,"EPHEMERIS_TYPE":0,"CLASSIFICATION_TYPE":"U","NORAD_CAT_ID":49751,"ELEMENT_SET_NO":999,"REV_AT_EPOCH":23551,"BSTAR":3.5157125e-5,"MEAN_MOTION_DOT":2.72e-6,"MEAN_MOTION_DDOT":0},{"OBJECT_NAME":"YUNYAO-1 44","OBJECT_ID":"2025-059B","EPOCH":"2026-03-09T23:37:33.233088","MEAN_MOTION":15.10344945,"ECCENTRICITY":0.00180831,"INCLINATION":97.6069,"RA_OF_ASC_NODE":250.8958,"ARG_OF_PERICENTER":135.5449,"MEAN_ANOMALY":224.7236,"EPHEMERIS_TYPE":0,"CLASSIFICATION_TYPE":"U","NORAD_CAT_ID":63345,"ELEMENT_SET_NO":999,"REV_AT_EPOCH":5332,"BSTAR":0.0003556422,"MEAN_MOTION_DOT":5.791e-5,"MEAN_MOTION_DDOT":0}]
